{
    "links": {
        "self": "http://www.neowsapp.com/rest/v1/neo/3448994?api_key=iIulBulltgU6a56xZRHN4H3l9WmuAYTsLGpBGhQ2"
    },
    "id": "3448994",
    "neo_reference_id": "3448994",
    "name": "(2009 DN45)",
    "designation": "2009 DN45",
    "nasa_jpl_url": "http://ssd.jpl.nasa.gov/sbdb.cgi?sstr=3448994",
    "absolute_magnitude_h": 24.7,
    "estimated_diameter": {
        "kilometers": {
            "estimated_diameter_min": 0.0305179233,
            "estimated_diameter_max": 0.0682401509
        },
        "meters": {
            "estimated_diameter_min": 30.5179232594,
            "estimated_diameter_max": 68.2401509401
        },
        "miles": {
            "estimated_diameter_min": 0.0189629525,
            "estimated_diameter_max": 0.0424024508
        },
        "feet": {
            "estimated_diameter_min": 100.1244233463,
            "estimated_diameter_max": 223.8850168104
        }
    },
    "is_potentially_hazardous_asteroid": false,
    "close_approach_data": [
        {
            "close_approach_date": "2009-03-07",
            "close_approach_date_full": "2009-Mar-07 22:23",
            "epoch_date_close_approach": 1236464580000,
            "relative_velocity": {
                "kilometers_per_second": "7.5169842885",
                "kilometers_per_hour": "27061.1434385084",
                "miles_per_hour": "16814.7421548887"
            },
            "miss_distance": {
                "astronomical": "0.0336755001",
                "lunar": "13.0997695389",
                "kilometers": "5037783.086144787",
                "miles": "3130333.2542485806"
            },
            "orbiting_body": "Earth"
        }
    ],
    "orbital_data": {
        "orbit_id": "9",
        "orbit_determination_date": "2017-04-06 09:01:10",
        "first_observation_date": "2009-02-28",
        "last_observation_date": "2009-03-18",
        "data_arc_in_days": 18,
        "observations_used": 27,
        "orbit_uncertainty": "8",
        "minimum_orbit_intersection": ".0323307",
        "jupiter_tisserand_invariant": "3.735",
        "epoch_osculation": "2454894.5",
        "eccentricity": ".4745672219377418",
        "semi_major_axis": "1.949278419803942",
        "inclination": "8.53046508387731",
        "ascending_node_longitude": "350.4142777177539",
        "orbital_period": "994.0523104624843",
        "perihelion_distance": "1.024214775334394",
        "perihelion_argument": "174.3896678542576",
        "aphelion_distance": "2.87434206427349",
        "perihelion_time": "2454895.883640206907",
        "mean_anomaly": "359.4989091929631",
        "mean_motion": ".3621539794344519",
        "equinox": "J2000",
        "orbit_class": {
            "orbit_class_type": "AMO",
            "orbit_class_description": "Near-Earth asteroid orbits similar to that of 1221 Amor",
            "orbit_class_range": "1.017 AU < q (perihelion) < 1.3 AU"
        }
    },
    "is_sentry_object": false
}